     3.02           N                   G                   RINEX VERSION / TYPE
NAS Convert 1.15.0  NovAtel             20241230 091020 UTC PGM / RUN BY / DATE 
                                                            COMMENT             
                                                            END OF HEADER       
G26 2024 12 28 05 59 44 -.255457125604D-04 -.146656020661D-10  .000000000000D+00
      .320000000000D+02  .317812500000D+02  .504128141818D-08  .144867440080D+01
      .174343585968D-05  .977480539586D-02  .951439142227D-05  .515375355721D+04
      .539984000000D+06 -.968575477600D-07  .236324597624D+01  .670552253723D-07
      .929812662681D+00  .182437500000D+03  .599650009510D+00 -.817212611614D-08
     -.583595737676D-09  .100000000000D+01  .234600000000D+04  .000000000000D+00
      .200000000000D+01  .000000000000D+00  .651925802231D-08  .320000000000D+02
      .532800000000D+06  .000000000000D+00                                      
G16 2024 12 28 06 00 00 -.921967439353D-04  .954969436862D-11  .000000000000D+00
      .950000000000D+02  .538750000000D+02  .426553481950D-08  .633114316164D+00
      .299140810966D-05  .144331074553D-01  .976212322712D-05  .515367236519D+04
      .540000000000D+06 -.208616256714D-06  .253628031579D+01  .121071934700D-06
      .960484924350D+00  .193687500000D+03  .863160330230D+00 -.788425698238D-08
     -.517521556850D-09  .100000000000D+01  .234600000000D+04  .000000000000D+00
      .200000000000D+01  .000000000000D+00 -.107102096081D-07  .950000000000D+02
      .532800000000D+06  .000000000000D+00                                      
G04 2024 12 28 06 00 00  .502941198647D-03  .602540239925D-11  .000000000000D+00
      .202000000000D+03 -.144687500000D+02  .434053794369D-08 -.692824783413D+00
     -.871717929840D-06  .322693539783D-02  .885501503944D-05  .515367495918D+04
      .540000000000D+06  .819563865662D-07  .390661906831D+00 -.745058059692D-08
      .966819488370D+00  .211906250000D+03 -.297223592478D+01 -.771853579371D-08
      .429660754238D-09  .100000000000D+01  .234600000000D+04  .000000000000D+00
      .200000000000D+01  .000000000000D+00 -.465661287308D-08  .714000000000D+03
      .532800000000D+06  .000000000000D+00                                      
G29 2024 12 28 06 00 00 -.552183017135D-03  .329691829393D-11  .000000000000D+00
      .750000000000D+02  .115968750000D+03  .416588781166D-08 -.439694919767D+00
      .593625009060D-05  .287931750063D-02  .526569783688D-05  .515373352051D+04
      .540000000000D+06  .745058059692D-08 -.271139130413D+01 -.149011611938D-07
      .968542486951D+00  .279187500000D+03  .264438322950D+01 -.801854829044D-08
      .235724104569D-09  .100000000000D+01  .234600000000D+04  .000000000000D+00
      .200000000000D+01  .000000000000D+00 -.977888703346D-08  .750000000000D+02
      .532830000000D+06  .000000000000D+00                                      
G28 2024 12 28 06 00 00 -.520315952599D-03 -.102318153949D-10  .000000000000D+00
      .130000000000D+03 -.225000000000D+01  .483127267047D-08  .192205430987D+01
     -.180676579475D-06  .458965660073D-03  .563263893127D-05  .515377732277D+04
      .540000000000D+06  .111758708954D-07  .137157627442D+01  .260770320892D-07
      .960961004706D+00  .272500000000D+03  .141539826344D+01 -.804926385558D-08
     -.179293182566D-09  .100000000000D+01  .234600000000D+04  .000000000000D+00
      .200000000000D+01  .000000000000D+00 -.931322574615D-08  .642000000000D+03
      .532860000000D+06  .000000000000D+00                                      
G31 2024 12 28 06 00 00 -.219103414565D-03  .795807864051D-12  .000000000000D+00
      .410000000000D+02 -.662500000000D+01  .495449208877D-08  .209195416457D+01
     -.594183802605D-06  .107174667064D-01  .599026679993D-05  .515359633636D+04
      .540000000000D+06 -.134110450745D-06  .142462433625D+01 -.135973095894D-06
      .953800908699D+00  .265093750000D+03  .790055322141D+00 -.804069206996D-08
     -.252510518077D-09  .100000000000D+01  .234600000000D+04  .000000000000D+00
      .200000000000D+01  .000000000000D+00 -.135041773319D-07  .410000000000D+02
      .532860000000D+06  .000000000000D+00                                      
G08 2024 12 28 06 00 00  .448551494628D-03  .841282599140D-11  .000000000000D+00
      .106000000000D+03  .125093750000D+03  .460697761340D-08 -.375286516395D+00
      .662729144096D-05  .102442436619D-01  .532716512680D-05  .515373439980D+04
      .540000000000D+06  .182539224625D-06 -.282497304061D+01  .484287738800D-07
      .950279594662D+00  .270375000000D+03  .394768445153D+00 -.831784647169D-08
      .188936441390D-09  .100000000000D+01  .234600000000D+04  .000000000000D+00
      .200000000000D+01  .000000000000D+00  .465661287308D-08  .106000000000D+03
      .533430000000D+06  .000000000000D+00                                      
